[{"OBJECT_NAME":"NANOSATC-BR1","OBJECT_ID":"2014-033Q","EPOCH":"2026-03-09T23:35:03.168384","MEAN_MOTION":15.28136801,"ECCENTRICITY":0.00046435,"INCLINATION":98.0845,"RA_OF_ASC_NODE":92.7804,"ARG_OF_PERICENTER":147.6715,"MEAN_ANOMALY":212.4808,"EPHEMERIS_TYPE":0,"CLASSIFICATION_TYPE":"U","NORAD_CAT_ID":40024,"ELEMENT_SET_NO":999,"REV_AT_EPOCH":63881,"BSTAR":0.00074295057,"MEAN_MOTION_DOT":0.00020336,"MEAN_MOTION_DDOT":0},{"OBJECT_NAME":"STARLINK-33810","OBJECT_ID":"2025-083AC","EPOCH":"2026-03-09T04:36:46.577664","MEAN_MOTION":15.27599214,"ECCENTRICITY":0.00012813,"INCLINATION":43.0001,"RA_OF_ASC_NODE":7.7668,"ARG_OF_PERICENTER":272.5477,"MEAN_ANOMALY":87.5228,"EPHEMERIS_TYPE":0,"CLASSIFICATION_TYPE":"U","NORAD_CAT_ID":63660,"ELEMENT_SET_NO":999,"REV_AT_EPOCH":5002,"BSTAR":0.00085972401,"MEAN_MOTION_DOT":0.00023485,"MEAN_MOTION_DDOT":0}]
